[{"OBJECT_NAME":"JINJUSAT-1B","OBJECT_ID":"2025-052A","EPOCH":"2026-03-09T15:55:38.242848","MEAN_MOTION":15.30194857,"ECCENTRICITY":0.00055504,"INCLINATION":97.4113,"RA_OF_ASC_NODE":325.4613,"ARG_OF_PERICENTER":82.193,"MEAN_ANOMALY":277.9941,"EPHEMERIS_TYPE":0,"CLASSIFICATION_TYPE":"U","NORAD_CAT_ID":63210,"ELEMENT_SET_NO":999,"REV_AT_EPOCH":5486,"BSTAR":0.00068430401,"MEAN_MOTION_DOT":0.00019955,"MEAN_MOTION_DDOT":0},{"OBJECT_NAME":"STARLINK-34257","OBJECT_ID":"2025-176AD","EPOCH":"2026-03-09T11:57:17.970624","MEAN_MOTION":15.30198763,"ECCENTRICITY":0.00011796,"INCLINATION":53.1593,"RA_OF_ASC_NODE":153.4332,"ARG_OF_PERICENTER":74.8777,"MEAN_ANOMALY":285.2354,"EPHEMERIS_TYPE":0,"CLASSIFICATION_TYPE":"U","NORAD_CAT_ID":65225,"ELEMENT_SET_NO":999,"REV_AT_EPOCH":3303,"BSTAR":0.0010192331,"MEAN_MOTION_DOT":0.00029948,"MEAN_MOTION_DDOT":0}]
